[{"OBJECT_NAME":"STARLINK-36945","OBJECT_ID":"2026-041L","EPOCH":"2026-03-12T22:00:01.999584","MEAN_MOTION":15.82371748,"ECCENTRICITY":9.743e-5,"INCLINATION":53.1589,"RA_OF_ASC_NODE":45.8926,"ARG_OF_PERICENTER":102.9682,"MEAN_ANOMALY":112.2235,"EPHEMERIS_TYPE":0,"CLASSIFICATION_TYPE":"U","NORAD_CAT_ID":68050,"ELEMENT_SET_NO":999,"REV_AT_EPOCH":289,"BSTAR":-0.0080154856,"MEAN_MOTION_DOT":-0.01497908,"MEAN_MOTION_DDOT":0},{"OBJECT_NAME":"STARLINK-35911","OBJECT_ID":"2026-041M","EPOCH":"2026-03-12T22:00:01.999584","MEAN_MOTION":15.82612151,"ECCENTRICITY":9.91e-5,"INCLINATION":53.1591,"RA_OF_ASC_NODE":45.876,"ARG_OF_PERICENTER":112.2055,"MEAN_ANOMALY":111.1535,"EPHEMERIS_TYPE":0,"CLASSIFICATION_TYPE":"U","NORAD_CAT_ID":68051,"ELEMENT_SET_NO":999,"REV_AT_EPOCH":285,"BSTAR":-0.0082438096,"MEAN_MOTION_DOT":-0.01550845,"MEAN_MOTION_DDOT":0},{"OBJECT_NAME":"STARLINK-35808","OBJECT_ID":"2026-041N","EPOCH":"2026-03-12T22:00:01.999584","MEAN_MOTION":15.82727809,"ECCENTRICITY":9.715e-5,"INCLINATION":53.1592,"RA_OF_ASC_NODE":45.8668,"ARG_OF_PERICENTER":109.4655,"MEAN_ANOMALY":117.9114,"EPHEMERIS_TYPE":0,"CLASSIFICATION_TYPE":"U","NORAD_CAT_ID":68052,"ELEMENT_SET_NO":999,"REV_AT_EPOCH":285,"BSTAR":-0.0079546298,"MEAN_MOTION_DOT":-0.01510204,"MEAN_MOTION_DDOT":0},{"OBJECT_NAME":"STARLINK-36919","OBJECT_ID":"2026-041P","EPOCH":"2026-03-12T22:00:01.999584","MEAN_MOTION":15.82812421,"ECCENTRICITY":8.76e-5,"INCLINATION":53.1591,"RA_OF_ASC_NODE":45.8585,"ARG_OF_PERICENTER":114.3643,"MEAN_ANOMALY":117.0689,"EPHEMERIS_TYPE":0,"CLASSIFICATION_TYPE":"U","NORAD_CAT_ID":68053,"ELEMENT_SET_NO":999,"REV_AT_EPOCH":289,"BSTAR":-0.0075740362,"MEAN_MOTION_DOT":-0.01451278,"MEAN_MOTION_DDOT":0},{"OBJECT_NAME":"STARLINK-36924","OBJECT_ID":"2026-041Q","EPOCH":"2026-03-12T22:00:01.999584","MEAN_MOTION":15.83142376,"ECCENTRICITY":0.00010144,"INCLINATION":53.1587,"RA_OF_ASC_NODE":45.8428,"ARG_OF_PERICENTER":123.9584,"MEAN_ANOMALY":115.3778,"EPHEMERIS_TYPE":0,"CLASSIFICATION_TYPE":"U","NORAD_CAT_ID":68054,"ELEMENT_SET_NO":999,"REV_AT_EPOCH":289,"BSTAR":-0.0080272394,"MEAN_MOTION_DOT":-0.01549017,"MEAN_MOTION_DDOT":0},{"OBJECT_NAME":"STARLINK-35998","OBJECT_ID":"2026-041R","EPOCH":"2026-03-12T22:00:01.999584","MEAN_MOTION":15.83013947,"ECCENTRICITY":9.757e-5,"INCLINATION":53.1591,"RA_OF_ASC_NODE":45.8505,"ARG_OF_PERICENTER":100.5451,"MEAN_ANOMALY":134.8199,"EPHEMERIS_TYPE":0,"CLASSIFICATION_TYPE":"U","NORAD_CAT_ID":68055,"ELEMENT_SET_NO":999,"REV_AT_EPOCH":285,"BSTAR":-0.0081084916,"MEAN_MOTION_DOT":-0.01554348,"MEAN_MOTION_DDOT":0},{"OBJECT_NAME":"STARLINK-36845","OBJECT_ID":"2026-041S","EPOCH":"2026-03-12T22:00:01.999584","MEAN_MOTION":15.83286968,"ECCENTRICITY":0.00010431,"INCLINATION":53.1588,"RA_OF_ASC_NODE":45.8343,"ARG_OF_PERICENTER":98.3956,"MEAN_ANOMALY":144.8751,"EPHEMERIS_TYPE":0,"CLASSIFICATION_TYPE":"U","NORAD_CAT_ID":68056,"ELEMENT_SET_NO":999,"REV_AT_EPOCH":289,"BSTAR":-0.0080080564,"MEAN_MOTION_DOT":-0.01555193,"MEAN_MOTION_DDOT":0},{"OBJECT_NAME":"STARLINK-36954","OBJECT_ID":"2026-041T","EPOCH":"2026-03-12T22:00:01.999584","MEAN_MOTION":15.83415226,"ECCENTRICITY":9.12e-5,"INCLINATION":53.159,"RA_OF_ASC_NODE":45.826,"ARG_OF_PERICENTER":106.8293,"MEAN_ANOMALY":140.3837,"EPHEMERIS_TYPE":0,"CLASSIFICATION_TYPE":"U","NORAD_CAT_ID":68057,"ELEMENT_SET_NO":999,"REV_AT_EPOCH":289,"BSTAR":-0.0079385041,"MEAN_MOTION_DOT":-0.01551579,"MEAN_MOTION_DDOT":0},{"OBJECT_NAME":"STARLINK-36899","OBJECT_ID":"2026-041U","EPOCH":"2026-03-12T22:00:01.999584","MEAN_MOTION":15.83581096,"ECCENTRICITY":9.295e-5,"INCLINATION":53.1589,"RA_OF_ASC_NODE":45.8182,"ARG_OF_PERICENTER":102.4605,"MEAN_ANOMALY":148.5706,"EPHEMERIS_TYPE":0,"CLASSIFICATION_TYPE":"U","NORAD_CAT_ID":68058,"ELEMENT_SET_NO":999,"REV_AT_EPOCH":289,"BSTAR":-0.0078660969,"MEAN_MOTION_DOT":-0.01549948,"MEAN_MOTION_DDOT":0},{"OBJECT_NAME":"STARLINK-36917","OBJECT_ID":"2026-041V","EPOCH":"2026-03-12T22:00:01.999584","MEAN_MOTION":15.8368265,"ECCENTRICITY":0.00010919,"INCLINATION":53.1588,"RA_OF_ASC_NODE":45.8102,"ARG_OF_PERICENTER":117.9194,"MEAN_ANOMALY":137.1253,"EPHEMERIS_TYPE":0,"CLASSIFICATION_TYPE":"U","NORAD_CAT_ID":68059,"ELEMENT_SET_NO":999,"REV_AT_EPOCH":289,"BSTAR":-0.007877795,"MEAN_MOTION_DOT":-0.01558743,"MEAN_MOTION_DDOT":0},{"OBJECT_NAME":"STARLINK-36959","OBJECT_ID":"2026-041W","EPOCH":"2026-03-12T22:00:01.999584","MEAN_MOTION":15.83834357,"ECCENTRICITY":7.966e-5,"INCLINATION":53.1587,"RA_OF_ASC_NODE":45.8016,"ARG_OF_PERICENTER":96.5588,"MEAN_ANOMALY":162.2982,"EPHEMERIS_TYPE":0,"CLASSIFICATION_TYPE":"U","NORAD_CAT_ID":68060,"ELEMENT_SET_NO":999,"REV_AT_EPOCH":289,"BSTAR":-0.0077884018,"MEAN_MOTION_DOT":-0.01552908,"MEAN_MOTION_DDOT":0},{"OBJECT_NAME":"STARLINK-36915","OBJECT_ID":"2026-041X","EPOCH":"2026-03-12T22:00:01.999584","MEAN_MOTION":15.83958417,"ECCENTRICITY":9.424e-5,"INCLINATION":53.1586,"RA_OF_ASC_NODE":45.7934,"ARG_OF_PERICENTER":102.9356,"MEAN_ANOMALY":159.8132,"EPHEMERIS_TYPE":0,"CLASSIFICATION_TYPE":"U","NORAD_CAT_ID":68061,"ELEMENT_SET_NO":999,"REV_AT_EPOCH":289,"BSTAR":-0.0077372523,"MEAN_MOTION_DOT":-0.01552177,"MEAN_MOTION_DDOT":0},{"OBJECT_NAME":"STARLINK-36952","OBJECT_ID":"2026-041Y","EPOCH":"2026-03-12T22:00:01.999584","MEAN_MOTION":15.84077137,"ECCENTRICITY":0.00010121,"INCLINATION":53.1588,"RA_OF_ASC_NODE":45.7859,"ARG_OF_PERICENTER":117.824,"MEAN_ANOMALY":148.8634,"EPHEMERIS_TYPE":0,"CLASSIFICATION_TYPE":"U","NORAD_CAT_ID":68062,"ELEMENT_SET_NO":999,"REV_AT_EPOCH":289,"BSTAR":-0.0077737705,"MEAN_MOTION_DOT":-0.01566493,"MEAN_MOTION_DDOT":0},{"OBJECT_NAME":"STARLINK-37000","OBJECT_ID":"2026-041Z","EPOCH":"2026-03-12T22:00:01.999584","MEAN_MOTION":15.84178772,"ECCENTRICITY":0.00010555,"INCLINATION":53.1587,"RA_OF_ASC_NODE":45.7772,"ARG_OF_PERICENTER":115.3964,"MEAN_ANOMALY":155.2502,"EPHEMERIS_TYPE":0,"CLASSIFICATION_TYPE":"U","NORAD_CAT_ID":68063,"ELEMENT_SET_NO":999,"REV_AT_EPOCH":289,"BSTAR":-0.0077535451,"MEAN_MOTION_DOT":-0.01569688,"MEAN_MOTION_DDOT":0},{"OBJECT_NAME":"STARLINK-36996","OBJECT_ID":"2026-041AA","EPOCH":"2026-03-12T22:00:01.999584","MEAN_MOTION":15.84286654,"ECCENTRICITY":8.277e-5,"INCLINATION":53.1586,"RA_OF_ASC_NODE":45.7693,"ARG_OF_PERICENTER":107.454,"MEAN_ANOMALY":167.1554,"EPHEMERIS_TYPE":0,"CLASSIFICATION_TYPE":"U","NORAD_CAT_ID":68064,"ELEMENT_SET_NO":999,"REV_AT_EPOCH":289,"BSTAR":-0.0078045473,"MEAN_MOTION_DOT":-0.01585766,"MEAN_MOTION_DDOT":0},{"OBJECT_NAME":"STARLINK-36836","OBJECT_ID":"2026-041AB","EPOCH":"2026-03-12T22:00:01.999584","MEAN_MOTION":15.8453508,"ECCENTRICITY":0.00010108,"INCLINATION":53.1586,"RA_OF_ASC_NODE":45.753,"ARG_OF_PERICENTER":123.331,"MEAN_ANOMALY":158.9907,"EPHEMERIS_TYPE":0,"CLASSIFICATION_TYPE":"U","NORAD_CAT_ID":68065,"ELEMENT_SET_NO":999,"REV_AT_EPOCH":289,"BSTAR":-0.0077819873,"MEAN_MOTION_DOT":-0.01598621,"MEAN_MOTION_DDOT":0}]
