STARLINK-36945          
1 68050U 26041L   26071.91668981 -.01497908  00000+0 -80155-2 0  9996
2 68050  53.1589  45.8926 0000974 102.9682 112.2235 15.82371748  2895
STARLINK-35911          
1 68051U 26041M   26071.91668981 -.01550845  00000+0 -82438-2 0  9993
2 68051  53.1591  45.8760 0000991 112.2055 111.1535 15.82612151  2855
STARLINK-35808          
1 68052U 26041N   26071.91668981 -.01510204  00000+0 -79546-2 0  9995
2 68052  53.1592  45.8668 0000971 109.4655 117.9114 15.82727809  2850
STARLINK-36919          
1 68053U 26041P   26071.91668981 -.01451278  00000+0 -75740-2 0  9993
2 68053  53.1591  45.8585 0000876 114.3643 117.0689 15.82812421  2891
STARLINK-36924          
1 68054U 26041Q   26071.91668981 -.01549017  00000+0 -80272-2 0  9999
2 68054  53.1587  45.8428 0001014 123.9584 115.3778 15.83142376  2894
STARLINK-35998          
1 68055U 26041R   26071.91668981 -.01554348  00000+0 -81085-2 0  9996
2 68055  53.1591  45.8505 0000975 100.5451 134.8199 15.83013947  2855
STARLINK-36845          
1 68056U 26041S   26071.91668981 -.01555193  00000+0 -80081-2 0  9991
2 68056  53.1588  45.8343 0001043  98.3956 144.8751 15.83286968  2897
STARLINK-36954          
1 68057U 26041T   26071.91668981 -.01551579  00000+0 -79385-2 0  9991
2 68057  53.1590  45.8260 0000912 106.8293 140.3837 15.83415226  2899
STARLINK-36899          
1 68058U 26041U   26071.91668981 -.01549948  00000+0 -78661-2 0  9995
2 68058  53.1589  45.8182 0000929 102.4605 148.5706 15.83581096  2892
STARLINK-36917          
1 68059U 26041V   26071.91668981 -.01558743  00000+0 -78778-2 0  9998
2 68059  53.1588  45.8102 0001091 117.9194 137.1253 15.83682650  2898
STARLINK-36959          
1 68060U 26041W   26071.91668981 -.01552908  00000+0 -77884-2 0  9994
2 68060  53.1587  45.8016 0000796  96.5588 162.2982 15.83834357  2894
STARLINK-36915          
1 68061U 26041X   26071.91668981 -.01552177  00000+0 -77373-2 0  9996
2 68061  53.1586  45.7934 0000942 102.9356 159.8132 15.83958417  2893
STARLINK-36952          
1 68062U 26041Y   26071.91668981 -.01566493  00000+0 -77738-2 0  9998
2 68062  53.1588  45.7859 0001012 117.8240 148.8634 15.84077137  2895
STARLINK-37000          
1 68063U 26041Z   26071.91668981 -.01569688  00000+0 -77535-2 0  9993
2 68063  53.1587  45.7772 0001055 115.3964 155.2502 15.84178772  2895
STARLINK-36996          
1 68064U 26041AA  26071.91668981 -.01585766  00000+0 -78045-2 0  9996
2 68064  53.1586  45.7693 0000827 107.4540 167.1554 15.84286654  2893
STARLINK-36836          
1 68065U 26041AB  26071.91668981 -.01598621  00000+0 -77820-2 0  9991
2 68065  53.1586  45.7530 0001010 123.3310 158.9907 15.84535080  2891
